ONEWEB-0188             
1 48231U 21031X   25241.98247472  .00000235  00000+0  60039-3 0  9992
2 48231  87.9097 347.7112 0001824 100.6448 259.4887 13.14502547209885
ONEWEB-0220             
1 48232U 21031Y   25241.79376239 -.00000226  00000+0 -64296-3 0  9997
2 48232  87.9090 347.6873 0001896 108.4646 251.6690 13.14501644210129
ONEWEB-0165             
1 48233U 21031Z   25242.05066492  .00000296  00000+0  76475-3 0  9992
2 48233  87.9080 347.6790 0001764 106.9466 253.1857 13.14502448210118
ONEWEB-0199             
1 48234U 21031AA  25242.03480916  .00000062  00000+0  13348-3 0  9993
2 48234  87.9085 347.6468 0001841  95.9824 264.1516 13.14503426210017
ONEWEB-0203             
1 48235U 21031AB  25241.79693811 -.00000124  00000+0 -36886-3 0  9999
2 48235  87.9081 347.6955 0001601  95.9980 264.1332 13.14503631209991
ONEWEB-0197             
1 48236U 21031AC  25242.00070252 -.00000038  00000+0 -13758-3 0  9990
2 48236  87.9083 347.6539 0002107 102.1317 258.0049 13.14505236209933
ONEWEB-0194             
1 48237U 21031AD  25242.05542276  .00000363  00000+0  94485-3 0  9991
2 48237  87.9097 347.6560 0001762  91.7439 268.3893 13.14502921210118
ONEWEB-0193             
1 48238U 21031AE  25242.07128792  .00000142  00000+0  34832-3 0  9992
2 48238  87.9081 347.6560 0001878  84.5251 275.6092 13.14502943210062
ONEWEB-0191             
1 48239U 21031AF  25242.00626747 -.00000089  00000+0 -27491-3 0  9994
2 48239  87.9094 347.6437 0001850  97.6425 262.4915 13.14503509209917
ONEWEB-0195             
1 48240U 21031AG  25242.05938145  .00000262  00000+0  67226-3 0  9990
2 48240  87.9095 347.6306 0001506 109.6092 250.5200 13.14504120209901
ONEWEB-0201             
1 48241U 21031AH  25242.04763091  .00000134  00000+0  32625-3 0  9999
2 48241  87.9098 347.6819 0001935 108.9936 251.1404 13.14503792210133
ONEWEB-0207             
1 48242U 21031AJ  25242.02765489 -.00000246  00000+0 -69830-3 0  9995
2 48242  87.9095 347.6451 0001986 105.7713 254.3636 13.14503473210045
ONEWEB-0208             
1 48243U 21031AK  25242.00943085 -.00000055  00000+0 -18396-3 0  9993
2 48243  87.9092 347.6628 0001668 103.2348 256.8968 13.14503418210058
ONEWEB-0200             
1 48244U 21031AL  25242.04908350  .00000259  00000+0  66349-3 0  9999
2 48244  87.9086 347.6461 0001732 102.0246 258.1078 13.14502705209988
ONEWEB-0217             
1 48245U 21031AM  25241.83657304  .00000044  00000+0  83246-4 0  9994
2 48245  87.9096 347.6733 0001526 105.1979 254.9320 13.14503545209909
ONEWEB-0211             
1 48767U 21045A   25241.94754746  .00000057  00000+0  11634-3 0  9993
2 48767  87.9065 317.2376 0001613  92.5161 267.6154 13.16084725206133
