[{"OBJECT_NAME":"ONEWEB-0188","OBJECT_ID":"2021-031X","EPOCH":"2025-08-29T23:34:45.815808","MEAN_MOTION":13.14502547,"ECCENTRICITY":0.00018248,"INCLINATION":87.9097,"RA_OF_ASC_NODE":347.7112,"ARG_OF_PERICENTER":100.6448,"MEAN_ANOMALY":259.4887,"EPHEMERIS_TYPE":0,"CLASSIFICATION_TYPE":"U","NORAD_CAT_ID":48231,"ELEMENT_SET_NO":999,"REV_AT_EPOCH":20988,"BSTAR":0.00060038895,"MEAN_MOTION_DOT":2.35e-6,"MEAN_MOTION_DDOT":0},{"OBJECT_NAME":"ONEWEB-0220","OBJECT_ID":"2021-031Y","EPOCH":"2025-08-29T19:03:01.070496","MEAN_MOTION":13.14501644,"ECCENTRICITY":0.00018961,"INCLINATION":87.909,"RA_OF_ASC_NODE":347.6873,"ARG_OF_PERICENTER":108.4646,"MEAN_ANOMALY":251.669,"EPHEMERIS_TYPE":0,"CLASSIFICATION_TYPE":"U","NORAD_CAT_ID":48232,"ELEMENT_SET_NO":999,"REV_AT_EPOCH":21012,"BSTAR":-0.00064295602,"MEAN_MOTION_DOT":-2.26e-6,"MEAN_MOTION_DDOT":0},{"OBJECT_NAME":"ONEWEB-0165","OBJECT_ID":"2021-031Z","EPOCH":"2025-08-30T01:12:57.449088","MEAN_MOTION":13.14502448,"ECCENTRICITY":0.00017645,"INCLINATION":87.908,"RA_OF_ASC_NODE":347.679,"ARG_OF_PERICENTER":106.9466,"MEAN_ANOMALY":253.1857,"EPHEMERIS_TYPE":0,"CLASSIFICATION_TYPE":"U","NORAD_CAT_ID":48233,"ELEMENT_SET_NO":999,"REV_AT_EPOCH":21011,"BSTAR":0.00076475115,"MEAN_MOTION_DOT":2.96e-6,"MEAN_MOTION_DDOT":0},{"OBJECT_NAME":"ONEWEB-0199","OBJECT_ID":"2021-031AA","EPOCH":"2025-08-30T00:50:07.511424","MEAN_MOTION":13.14503426,"ECCENTRICITY":0.0001841,"INCLINATION":87.9085,"RA_OF_ASC_NODE":347.6468,"ARG_OF_PERICENTER":95.9824,"MEAN_ANOMALY":264.1516,"EPHEMERIS_TYPE":0,"CLASSIFICATION_TYPE":"U","NORAD_CAT_ID":48234,"ELEMENT_SET_NO":999,"REV_AT_EPOCH":21001,"BSTAR":0.00013348446,"MEAN_MOTION_DOT":6.2e-7,"MEAN_MOTION_DDOT":0},{"OBJECT_NAME":"ONEWEB-0203","OBJECT_ID":"2021-031AB","EPOCH":"2025-08-29T19:07:35.452704","MEAN_MOTION":13.14503631,"ECCENTRICITY":0.00016017,"INCLINATION":87.9081,"RA_OF_ASC_NODE":347.6955,"ARG_OF_PERICENTER":95.998,"MEAN_ANOMALY":264.1332,"EPHEMERIS_TYPE":0,"CLASSIFICATION_TYPE":"U","NORAD_CAT_ID":48235,"ELEMENT_SET_NO":999,"REV_AT_EPOCH":20999,"BSTAR":-0.00036885578,"MEAN_MOTION_DOT":-1.24e-6,"MEAN_MOTION_DDOT":0},{"OBJECT_NAME":"ONEWEB-0197","OBJECT_ID":"2021-031AC","EPOCH":"2025-08-30T00:01:00.697728","MEAN_MOTION":13.14505236,"ECCENTRICITY":0.00021077,"INCLINATION":87.9083,"RA_OF_ASC_NODE":347.6539,"ARG_OF_PERICENTER":102.1317,"MEAN_ANOMALY":258.0049,"EPHEMERIS_TYPE":0,"CLASSIFICATION_TYPE":"U","NORAD_CAT_ID":48236,"ELEMENT_SET_NO":999,"REV_AT_EPOCH":20993,"BSTAR":-0.00013758203,"MEAN_MOTION_DOT":-3.8e-7,"MEAN_MOTION_DDOT":0},{"OBJECT_NAME":"ONEWEB-0194","OBJECT_ID":"2021-031AD","EPOCH":"2025-08-30T01:19:48.526464","MEAN_MOTION":13.14502921,"ECCENTRICITY":0.00017626,"INCLINATION":87.9097,"RA_OF_ASC_NODE":347.656,"ARG_OF_PERICENTER":91.7439,"MEAN_ANOMALY":268.3893,"EPHEMERIS_TYPE":0,"CLASSIFICATION_TYPE":"U","NORAD_CAT_ID":48237,"ELEMENT_SET_NO":999,"REV_AT_EPOCH":21011,"BSTAR":0.00094485335,"MEAN_MOTION_DOT":3.63e-6,"MEAN_MOTION_DDOT":0},{"OBJECT_NAME":"ONEWEB-0193","OBJECT_ID":"2021-031AE","EPOCH":"2025-08-30T01:42:39.276288","MEAN_MOTION":13.14502943,"ECCENTRICITY":0.00018785,"INCLINATION":87.9081,"RA_OF_ASC_NODE":347.656,"ARG_OF_PERICENTER":84.5251,"MEAN_ANOMALY":275.6092,"EPHEMERIS_TYPE":0,"CLASSIFICATION_TYPE":"U","NORAD_CAT_ID":48238,"ELEMENT_SET_NO":999,"REV_AT_EPOCH":21006,"BSTAR":0.00034831514,"MEAN_MOTION_DOT":1.42e-6,"MEAN_MOTION_DDOT":0},{"OBJECT_NAME":"ONEWEB-0191","OBJECT_ID":"2021-031AF","EPOCH":"2025-08-30T00:09:01.509408","MEAN_MOTION":13.14503509,"ECCENTRICITY":0.00018502,"INCLINATION":87.9094,"RA_OF_ASC_NODE":347.6437,"ARG_OF_PERICENTER":97.6425,"MEAN_ANOMALY":262.4915,"EPHEMERIS_TYPE":0,"CLASSIFICATION_TYPE":"U","NORAD_CAT_ID":48239,"ELEMENT_SET_NO":999,"REV_AT_EPOCH":20991,"BSTAR":-0.00027491215,"MEAN_MOTION_DOT":-8.9e-7,"MEAN_MOTION_DDOT":0},{"OBJECT_NAME":"ONEWEB-0195","OBJECT_ID":"2021-031AG","EPOCH":"2025-08-30T01:25:30.557280","MEAN_MOTION":13.1450412,"ECCENTRICITY":0.00015066,"INCLINATION":87.9095,"RA_OF_ASC_NODE":347.6306,"ARG_OF_PERICENTER":109.6092,"MEAN_ANOMALY":250.52,"EPHEMERIS_TYPE":0,"CLASSIFICATION_TYPE":"U","NORAD_CAT_ID":48240,"ELEMENT_SET_NO":999,"REV_AT_EPOCH":20990,"BSTAR":0.00067226068,"MEAN_MOTION_DOT":2.62e-6,"MEAN_MOTION_DDOT":0},{"OBJECT_NAME":"ONEWEB-0201","OBJECT_ID":"2021-031AH","EPOCH":"2025-08-30T01:08:35.310624","MEAN_MOTION":13.14503792,"ECCENTRICITY":0.00019359,"INCLINATION":87.9098,"RA_OF_ASC_NODE":347.6819,"ARG_OF_PERICENTER":108.9936,"MEAN_ANOMALY":251.1404,"EPHEMERIS_TYPE":0,"CLASSIFICATION_TYPE":"U","NORAD_CAT_ID":48241,"ELEMENT_SET_NO":999,"REV_AT_EPOCH":21013,"BSTAR":0.00032624555,"MEAN_MOTION_DOT":1.34e-6,"MEAN_MOTION_DDOT":0},{"OBJECT_NAME":"ONEWEB-0207","OBJECT_ID":"2021-031AJ","EPOCH":"2025-08-30T00:39:49.382496","MEAN_MOTION":13.14503473,"ECCENTRICITY":0.00019863,"INCLINATION":87.9095,"RA_OF_ASC_NODE":347.6451,"ARG_OF_PERICENTER":105.7713,"MEAN_ANOMALY":254.3636,"EPHEMERIS_TYPE":0,"CLASSIFICATION_TYPE":"U","NORAD_CAT_ID":48242,"ELEMENT_SET_NO":999,"REV_AT_EPOCH":21004,"BSTAR":-0.0006982965,"MEAN_MOTION_DOT":-2.46e-6,"MEAN_MOTION_DDOT":0},{"OBJECT_NAME":"ONEWEB-0208","OBJECT_ID":"2021-031AK","EPOCH":"2025-08-30T00:13:34.825440","MEAN_MOTION":13.14503418,"ECCENTRICITY":0.00016682,"INCLINATION":87.9092,"RA_OF_ASC_NODE":347.6628,"ARG_OF_PERICENTER":103.2348,"MEAN_ANOMALY":256.8968,"EPHEMERIS_TYPE":0,"CLASSIFICATION_TYPE":"U","NORAD_CAT_ID":48243,"ELEMENT_SET_NO":999,"REV_AT_EPOCH":21005,"BSTAR":-0.00018396243,"MEAN_MOTION_DOT":-5.5e-7,"MEAN_MOTION_DDOT":0},{"OBJECT_NAME":"ONEWEB-0200","OBJECT_ID":"2021-031AL","EPOCH":"2025-08-30T01:10:40.814400","MEAN_MOTION":13.14502705,"ECCENTRICITY":0.00017324,"INCLINATION":87.9086,"RA_OF_ASC_NODE":347.6461,"ARG_OF_PERICENTER":102.0246,"MEAN_ANOMALY":258.1078,"EPHEMERIS_TYPE":0,"CLASSIFICATION_TYPE":"U","NORAD_CAT_ID":48244,"ELEMENT_SET_NO":999,"REV_AT_EPOCH":20998,"BSTAR":0.00066348584,"MEAN_MOTION_DOT":2.59e-6,"MEAN_MOTION_DDOT":0},{"OBJECT_NAME":"ONEWEB-0217","OBJECT_ID":"2021-031AM","EPOCH":"2025-08-29T20:04:39.910656","MEAN_MOTION":13.14503545,"ECCENTRICITY":0.00015266,"INCLINATION":87.9096,"RA_OF_ASC_NODE":347.6733,"ARG_OF_PERICENTER":105.1979,"MEAN_ANOMALY":254.932,"EPHEMERIS_TYPE":0,"CLASSIFICATION_TYPE":"U","NORAD_CAT_ID":48245,"ELEMENT_SET_NO":999,"REV_AT_EPOCH":20990,"BSTAR":8.324607e-5,"MEAN_MOTION_DOT":4.4e-7,"MEAN_MOTION_DDOT":0},{"OBJECT_NAME":"ONEWEB-0211","OBJECT_ID":"2021-045A","EPOCH":"2025-08-29T22:44:28.100544","MEAN_MOTION":13.16084725,"ECCENTRICITY":0.00016138,"INCLINATION":87.9065,"RA_OF_ASC_NODE":317.2376,"ARG_OF_PERICENTER":92.5161,"MEAN_ANOMALY":267.6154,"EPHEMERIS_TYPE":0,"CLASSIFICATION_TYPE":"U","NORAD_CAT_ID":48767,"ELEMENT_SET_NO":999,"REV_AT_EPOCH":20613,"BSTAR":0.00011634146,"MEAN_MOTION_DOT":5.7e-7,"MEAN_MOTION_DDOT":0}]
